STARLINK-1115           
1 44973U 20001BM  20122.00001157  .04565007  00000-0  10119+0 0  9999
2 44973  52.9975 189.8387 0003256 103.6198 344.8362 15.39012583 18044
STARLINK-1132           
1 45044U 20006A   20121.25001157 -.00031219  00000-0 -21321-2 0  9991
2 45044  52.9983 150.9315 0001527  70.3223  93.8724 15.05593445  1859
STARLINK-1120           
1 45045U 20006B   20121.25001157 -.00025696  00000-0 -17499-2 0  9995
2 45045  52.9999 170.9349 0001141  94.1016  67.8802 15.05598927 14359
STARLINK-1129           
1 45046U 20006C   20121.16667824  .00007394  00000-0  52617-3 0  9990
2 45046  52.9972 171.3214 0001356  88.4820 287.6850 15.05572499  1856
STARLINK-1131           
1 45047U 20006D   20121.25001157 -.00026921  00000-0 -18347-2 0  9992
2 45047  53.0001 170.9325 0001314 116.3618  27.6580 15.05595268 14350
STARLINK-1134           
1 45048U 20006E   20121.16667824  .00119245  00000-0  80662-2 0  9991
2 45048  52.9987 171.3095 0001365 103.8270 254.2528 15.05578547 14342
STARLINK-1135           
1 45049U 20006F   20121.25001157 -.00029054  00000-0 -19826-2 0  9997
2 45049  52.9980 170.9361 0001129  98.6605 333.3707 15.05588188 14359
STARLINK-1140           
1 45050U 20006G   20121.25001157 -.00028814  00000-0 -19662-2 0  9990
2 45050  52.9991 170.9375 0001259  94.1146 301.9744 15.05584816  1861
STARLINK-1141           
1 45051U 20006H   20121.16667824  .00005262  00000-0  38001-3 0  9999
2 45051  52.9996 171.3077 0001146 106.6974 215.3729 15.05584168 14342
STARLINK-1148           
1 45052U 20006J   20121.25001157 -.00027732  00000-0 -18893-2 0  9995
2 45052  52.9967 170.9446 0001304  99.4728 260.4754 15.05625011  1863
STARLINK-1155           
1 45053U 20006K   20121.16667824  .00004022  00000-0  29478-3 0  9992
2 45053  53.0000 171.3076 0000878 105.8945  54.2342 15.05611674  1846
STARLINK-1156           
1 45054U 20006L   20121.25001157 -.00046596  00000-0 -31976-2 0  9993
2 45054  52.9975 170.9373 0001412 119.6197 258.4513 15.05605906  1869
STARLINK-1157           
1 45055U 20006M   20121.25001157  .06638619  00000-0  26720+0 0  9999
2 45055  52.9991 170.2355 0002571  40.1690 277.8945 15.19174277  1854
STARLINK-1158           
1 45056U 20006N   20121.16667824  .00003240  00000-0  24137-3 0  9993
2 45056  52.9914 171.3377 0001005 101.3362 148.7354 15.05584863 14342
STARLINK-1159           
1 45057U 20006P   20121.25001157 -.00023641  00000-0 -16083-2 0  9994
2 45057  52.9986 170.9333 0001522  98.7760 189.2804 15.05590774 14364
STARLINK-1162           
1 45058U 20006Q   20121.16667824  .00002894  00000-0  21766-3 0  9994
2 45058  52.9989 171.3038 0001156 101.5770 130.5136 15.05591665 14347
STARLINK-1165           
1 45059U 20006R   20121.25001157 -.00020246  00000-0 -13734-2 0  9994
2 45059  52.9989 170.9290 0000973  95.2005 120.9402 15.05605171 14368
STARLINK-1166           
1 45060U 20006S   20121.25001157 -.00022086  00000-0 -14998-2 0  9993
2 45060  52.9999 170.9346 0001482  94.2410 139.8157 15.05617341  1856
STARLINK-1169           
1 45061U 20006T   20121.25001157 -.00023470  00000-0 -15959-2 0  9990
2 45061  52.9987 170.9314 0001278 111.7861  86.1966 15.05604632  1858
STARLINK-1171           
1 45062U 20006U   20121.25001157 -.00022834  00000-0 -15525-2 0  9993
2 45062  52.9987 170.9366 0001088  96.6482 173.3269 15.05592960 14360
STARLINK-1178           
1 45063U 20006V   20121.25001157 -.00026351  00000-0 -17952-2 0  9998
2 45063  53.0007 170.9290 0001316 100.9434  79.1249 15.05598668  1854
STARLINK-1133           
1 45064U 20006W   20121.25001157 -.00030346  00000-0 -20716-2 0  9990
2 45064  53.0000 150.9257 0001115  81.8801 190.2734 15.05595127 14643
STARLINK-1139           
1 45065U 20006X   20121.25001157 -.00029936  00000-0 -20426-2 0  9992
2 45065  52.9995 150.9244 0001504  75.5630 178.5792 15.05605871 14644
STARLINK-1145           
1 45066U 20006Y   20121.25001157 -.00033637  00000-0 -22997-2 0  9991
2 45066  52.9992 150.9388 0001351  62.0848 318.0455 15.05590756  1865
STARLINK-1150           
1 45067U 20006Z   20121.16667824 -.00018176  00000-0 -12313-2 0  9993
2 45067  53.0159 151.2083 0001608  75.2153 140.9658 15.05585302 14636
STARLINK-1161           
1 45068U 20006AA  20121.25001157 -.00033050  00000-0 -22586-2 0  9996
2 45068  52.9925 150.9679 0001579  69.2747 292.8549 15.05597810 14635
STARLINK-1163           
1 45069U 20006AB  20121.16667824 -.00016440  00000-0 -11112-2 0  9993
2 45069  52.9993 151.3063 0001180  64.0446 260.2064 15.05597840  1843
STARLINK-1164           
1 45070U 20006AC  20121.25001157 -.00034100  00000-0 -23309-2 0  9990
2 45070  52.9991 150.9347 0001488  69.7843  22.3778 15.05604321  1861
STARLINK-1167           
1 45071U 20006AD  20121.16667824 -.00017974  00000-0 -12176-2 0  9990
2 45071  52.9996 151.3065 0001653  72.1609 324.1135 15.05577727 14628
STARLINK-1168           
1 45072U 20006AE  20121.16667824 -.00017524  00000-0 -11860-2 0  9991
2 45072  52.9987 151.3065 0001480  67.5547 310.7084 15.05596032  1851
STARLINK-1170           
1 45073U 20006AF  20121.25001157 -.00032097  00000-0 -21912-2 0  9994
2 45073  52.9976 150.9382 0001543  72.0331 254.1190 15.05621156 14634
STARLINK-1172           
1 45074U 20006AG  20121.25001157 -.00034037  00000-0 -23277-2 0  9997
2 45074  52.9966 150.9505 0001808  73.1702 324.9841 15.05585121  1860
STARLINK-1174           
1 45075U 20006AH  20121.25001157 -.00029973  00000-0 -20449-2 0  9999
2 45075  52.9992 150.9244 0001629  80.4461 155.6461 15.05610297 14644
STARLINK-1180           
1 45076U 20006AJ  20121.25001157 -.00030185  00000-0 -20596-2 0  9990
2 45076  52.9981 150.9237 0001454  75.2616 124.8474 15.05610688 14641
STARLINK-1182           
1 45077U 20006AK  20121.25001157 -.00034430  00000-0 -23537-2 0  9996
2 45077  52.9978 150.9355 0001557  65.7596   8.3615 15.05605409  1862
STARLINK-1177           
1 45078U 20006AL  20121.16667824 -.00017925  00000-0 -12137-2 0  9990
2 45078  52.9999 151.3037 0001476  65.0318 349.2386 15.05593204  1842
STARLINK-1149           
1 45079U 20006AM  20121.25001157 -.00030084  00000-0 -20545-2 0  9995
2 45079  52.9630 151.1287 0001480  79.3850 138.8979 15.05575445  1852
STARLINK-1153           
1 45080U 20006AN  20121.16667824 -.00018758  00000-0 -12706-2 0  9990
2 45080  52.9989 151.2973 0001325  69.3009  20.9432 15.05610279  1846
STARLINK-1151           
1 45081U 20006AP  20121.25001157 -.00030812  00000-0 -21032-2 0  9999
2 45081  53.0002 150.9098 0001653  88.4646 201.6583 15.05606526 14649
STARLINK-1160           
1 45082U 20006AQ  20121.25001157 -.00032543  00000-0 -22218-2 0  9990
2 45082  52.9856 151.0042 0001494  71.1855 272.9851 15.05625548 14633
STARLINK-1190           
1 45083U 20006AR  20121.25001157 -.00027923  00000-0 -19040-2 0  9996
2 45083  52.9994 170.9351 0001297 105.9423  20.1081 15.05595648  1864
STARLINK-1173           
1 45084U 20006AS  20121.25001157 -.00030107  00000-0 -32395-3 0  9994
2 45084  52.9962 141.6711 0001971  39.5047  61.3972 15.62767951 14870
STARLINK-1179           
1 45085U 20006AT  20121.16667824 -.00026779  00000-0 -28740-3 0  9993
2 45085  52.9980 141.3112 0002088  12.7299 350.9365 15.62765384  1872
STARLINK-1181           
1 45086U 20006AU  20121.25001157 -.00031972  00000-0 -34417-3 0  9994
2 45086  52.9964 143.2143 0001807  34.0582  38.0171 15.62790051  1889
STARLINK-1185           
1 45087U 20006AV  20121.25001157 -.00022276  00000-0 -23813-3 0  9990
2 45087  52.9958 143.2226 0001742  33.4829  33.4975 15.62748558  1886
STARLINK-1183           
1 45088U 20006AW  20121.25001157 -.00032597  00000-0 -35108-3 0  9998
2 45088  52.9961 143.2103 0001882  39.0523  34.7085 15.62786768  1884
STARLINK-1136           
1 45089U 20006AX  20121.25001157 -.00030148  00000-0 -32415-3 0  9997
2 45089  52.9962 141.6746 0001920  14.0342  85.1561 15.62788005 14425
STARLINK-1176           
1 45090U 20006AY  20121.25001157 -.00029199  00000-0 -31384-3 0  9997
2 45090  52.9976 140.9069 0001908  21.5997  89.4578 15.62778946  1881
STARLINK-1127           
1 45091U 20006AZ  20121.25001157 -.00033750  00000-0 -36404-3 0  9994
2 45091  52.9960 143.2516 0001944  21.5940  31.7971 15.62766579 14752
STARLINK-1137           
1 45092U 20006BA  20121.25001157 -.00033408  00000-0 -36032-3 0  9992
2 45092  52.9958 143.2435 0002057  34.3585  22.4216 15.62763486  1886
STARLINK-1142           
1 45093U 20006BB  20121.16667824 -.00021173  00000-0 -22553-3 0  9991
2 45093  52.9962 143.6549 0006928  30.8835 275.1604 15.62763297 14738
STARLINK-1146           
1 45094U 20006BC  20121.25001157 -.00033117  00000-0 -35701-3 0  9993
2 45094  52.9960 143.2354 0001939  18.9704  42.9331 15.62771309  1888
STARLINK-1147           
1 45095U 20006BD  20121.25001157 -.00033134  00000-0 -35731-3 0  9996
2 45095  52.9960 143.2305 0001802  39.9234  23.6835 15.62764024  1886
STARLINK-1152           
1 45096U 20006BE  20121.25001157 -.00033390  00000-0 -36019-3 0  9991
2 45096  52.9962 143.2401 0001684  25.4848  34.7230 15.62760175  1880
STARLINK-1175           
1 45097U 20006BF  20121.25001157  .06125215  00000-0  19103-1 0  9997
2 45097  52.9957 141.0589 0003384 106.4191 315.4088 15.87082894 14884
STARLINK-1184           
1 45098U 20006BG  20121.25001157 -.00033485  00000-0 -36100-3 0  9999
2 45098  52.9958 143.2513 0002059  17.0138  34.7090 15.62775225 12953
STARLINK-1186           
1 45099U 20006BH  20121.25001157 -.00032854  00000-0 -35369-3 0  9995
2 45099  52.9980 143.2222 0006413  28.4046  40.2539 15.62771031  1889
STARLINK-1193           
1 45100U 20006BJ  20121.16667824 -.00021098  00000-0 -22424-3 0  9993
2 45100  52.9965 143.6683 0008918  36.8773 264.0795 15.62792088  1865
STARLINK-1194           
1 45101U 20006BK  20121.25001157 -.00034100  00000-0 -36748-3 0  9997
2 45101  52.9958 143.2612 0002030  35.9644  12.3827 15.62795148  1884
